[{"OBJECT_NAME":"DONGPO 08","OBJECT_ID":"2022-167E","EPOCH":"2026-03-09T22:57:52.742880","MEAN_MOTION":15.31542505,"ECCENTRICITY":0.00092155,"INCLINATION":97.6764,"RA_OF_ASC_NODE":233.3854,"ARG_OF_PERICENTER":153.9158,"MEAN_ANOMALY":206.2548,"EPHEMERIS_TYPE":0,"CLASSIFICATION_TYPE":"U","NORAD_CAT_ID":54686,"ELEMENT_SET_NO":999,"REV_AT_EPOCH":18012,"BSTAR":0.0004734784,"MEAN_MOTION_DOT":0.0001437,"MEAN_MOTION_DDOT":0},{"OBJECT_NAME":"STARLINK-34283","OBJECT_ID":"2025-117M","EPOCH":"2026-03-09T21:43:59.336832","MEAN_MOTION":15.30171937,"ECCENTRICITY":0.00016173,"INCLINATION":53.161,"RA_OF_ASC_NODE":38.2526,"ARG_OF_PERICENTER":100.0958,"MEAN_ANOMALY":260.0225,"EPHEMERIS_TYPE":0,"CLASSIFICATION_TYPE":"U","NORAD_CAT_ID":64214,"ELEMENT_SET_NO":999,"REV_AT_EPOCH":4456,"BSTAR":0.0011761407,"MEAN_MOTION_DOT":0.00034607,"MEAN_MOTION_DDOT":0}]
